ONEWEB-0410             
1 51622U 22012A   23243.86271592 -.00002309  00000+0 -59800-2 0  9996
2 51622  87.9140 208.6303 0001400  44.5838 315.5406 13.17657707 79336
ONEWEB-0411             
1 51623U 22012B   23243.26616291 -.00000771  00000+0 -22463-2 0  9996
2 51623  87.8817 238.9899 0002077  77.3797 282.7562 13.10375811 75589
ONEWEB-0415             
1 51624U 22012C   23243.26299201  .00000779  00000+0  21964-2 0  9996
2 51624  87.8809 239.0201 0001693  76.3368 283.7948 13.10360117 75588
ONEWEB-0416             
1 51625U 22012D   23243.27414344  .00000230  00000+0  62345-3 0  9996
2 51625  87.8823 239.0017 0002167  88.4628 271.6747 13.10376261 75625
ONEWEB-0422             
1 51626U 22012E   23243.87114409 -.00000035  00000+0 -12456-3 0  9995
2 51626  87.9131 208.6252 0002491  97.9168 262.2246 13.17652133 79442
ONEWEB-0423             
1 51627U 22012F   23243.86482476 -.00000060  00000+0 -18667-3 0  9995
2 51627  87.9199 208.5652 0002002  84.3925 275.7435 13.17645458 79338
ONEWEB-0425             
1 51628U 22012G   23243.43640969  .00000763  00000+0  21496-2 0  9993
2 51628  87.8816 238.9627 0001872 102.5702 257.5635 13.10375351 75648
ONEWEB-0428             
1 51629U 22012H   23243.26459085 -.00000179  00000+0 -54987-3 0  9997
2 51629  87.8819 239.0081 0002310  92.7870 267.3522 13.10375270 75589
